CCSDS_OMM_VERS = 2.0
CREATION_DATE  = 
ORIGINATOR     = 

OBJECT_NAME    = STARLINK-35886
OBJECT_ID      = 2025-280T
CENTER_NAME    = EARTH
REF_FRAME      = TEME
TIME_SYSTEM    = UTC
MEAN_ELEMENT_THEORY = SGP/SGP4

EPOCH          = 2025-12-24T04:49:16.776768
MEAN_MOTION    = 15.52563123
ECCENTRICITY   = .00034087
INCLINATION    = 70.0010
RA_OF_ASC_NODE = 166.9825
ARG_OF_PERICENTER = 270.8549
MEAN_ANOMALY   = 89.2248

EPHEMERIS_TYPE = 0
CLASSIFICATION_TYPE = U
NORAD_CAT_ID   = 66838
ELEMENT_SET_NO = 999
REV_AT_EPOCH   = 471
BSTAR          = .20499492E-2
MEAN_MOTION_DOT = .128205E-2
MEAN_MOTION_DDOT = 0

CCSDS_OMM_VERS = 2.0
CREATION_DATE  = 
ORIGINATOR     = 

OBJECT_NAME    = STARLINK-35717
OBJECT_ID      = 2025-280U
CENTER_NAME    = EARTH
REF_FRAME      = TEME
TIME_SYSTEM    = UTC
MEAN_ELEMENT_THEORY = SGP/SGP4

EPOCH          = 2025-12-24T04:49:45.892704
MEAN_MOTION    = 15.52541972
ECCENTRICITY   = .00033672
INCLINATION    = 70.0008
RA_OF_ASC_NODE = 166.9825
ARG_OF_PERICENTER = 275.1827
MEAN_ANOMALY   = 84.8975

EPHEMERIS_TYPE = 0
CLASSIFICATION_TYPE = U
NORAD_CAT_ID   = 66839
ELEMENT_SET_NO = 999
REV_AT_EPOCH   = 471
BSTAR          = .11079985E-2
MEAN_MOTION_DOT = .68646E-3
MEAN_MOTION_DDOT = 0

CCSDS_OMM_VERS = 2.0
CREATION_DATE  = 
ORIGINATOR     = 

OBJECT_NAME    = STARLINK-35837
OBJECT_ID      = 2025-280V
CENTER_NAME    = EARTH
REF_FRAME      = TEME
TIME_SYSTEM    = UTC
MEAN_ELEMENT_THEORY = SGP/SGP4

EPOCH          = 2025-12-24T04:48:45.669312
MEAN_MOTION    = 15.52526403
ECCENTRICITY   = .00032619
INCLINATION    = 70.0006
RA_OF_ASC_NODE = 166.9808
ARG_OF_PERICENTER = 268.2176
MEAN_ANOMALY   = 91.8638

EPHEMERIS_TYPE = 0
CLASSIFICATION_TYPE = U
NORAD_CAT_ID   = 66840
ELEMENT_SET_NO = 999
REV_AT_EPOCH   = 471
BSTAR          = .19708285E-2
MEAN_MOTION_DOT = .123005E-2
MEAN_MOTION_DDOT = 0

CCSDS_OMM_VERS = 2.0
CREATION_DATE  = 
ORIGINATOR     = 

OBJECT_NAME    = STARLINK-35715
OBJECT_ID      = 2025-280W
CENTER_NAME    = EARTH
REF_FRAME      = TEME
TIME_SYSTEM    = UTC
MEAN_ELEMENT_THEORY = SGP/SGP4

EPOCH          = 2025-12-24T04:48:17.214336
MEAN_MOTION    = 15.52591873
ECCENTRICITY   = .00033022
INCLINATION    = 70.0006
RA_OF_ASC_NODE = 166.9796
ARG_OF_PERICENTER = 277.2327
MEAN_ANOMALY   = 82.8484

EPHEMERIS_TYPE = 0
CLASSIFICATION_TYPE = U
NORAD_CAT_ID   = 66841
ELEMENT_SET_NO = 999
REV_AT_EPOCH   = 471
BSTAR          = .15764786E-2
MEAN_MOTION_DOT = .98283E-3
MEAN_MOTION_DDOT = 0

CCSDS_OMM_VERS = 2.0
CREATION_DATE  = 
ORIGINATOR     = 

OBJECT_NAME    = STARLINK-35769
OBJECT_ID      = 2025-280X
CENTER_NAME    = EARTH
REF_FRAME      = TEME
TIME_SYSTEM    = UTC
MEAN_ELEMENT_THEORY = SGP/SGP4

EPOCH          = 2025-12-24T04:47:47.342400
MEAN_MOTION    = 15.52543801
ECCENTRICITY   = .0003013
INCLINATION    = 70.0007
RA_OF_ASC_NODE = 166.9783
ARG_OF_PERICENTER = 281.1483
MEAN_ANOMALY   = 78.9365

EPHEMERIS_TYPE = 0
CLASSIFICATION_TYPE = U
NORAD_CAT_ID   = 66842
ELEMENT_SET_NO = 999
REV_AT_EPOCH   = 471
BSTAR          = .16376341E-2
MEAN_MOTION_DOT = .101971E-2
MEAN_MOTION_DDOT = 0

CCSDS_OMM_VERS = 2.0
CREATION_DATE  = 
ORIGINATOR     = 

OBJECT_NAME    = STARLINK-35997
OBJECT_ID      = 2025-280Y
CENTER_NAME    = EARTH
REF_FRAME      = TEME
TIME_SYSTEM    = UTC
MEAN_ELEMENT_THEORY = SGP/SGP4

EPOCH          = 2025-12-24T06:19:34.778208
MEAN_MOTION    = 15.52546508
ECCENTRICITY   = .00033947
INCLINATION    = 70.0008
RA_OF_ASC_NODE = 166.7977
ARG_OF_PERICENTER = 272.0861
MEAN_ANOMALY   = 87.9937

EPHEMERIS_TYPE = 0
CLASSIFICATION_TYPE = U
NORAD_CAT_ID   = 66843
ELEMENT_SET_NO = 999
REV_AT_EPOCH   = 472
BSTAR          = .97524597E-3
MEAN_MOTION_DOT = .60348E-3
MEAN_MOTION_DDOT = 0

CCSDS_OMM_VERS = 2.0
CREATION_DATE  = 
ORIGINATOR     = 

OBJECT_NAME    = STARLINK-36073
OBJECT_ID      = 2025-280Z
CENTER_NAME    = EARTH
REF_FRAME      = TEME
TIME_SYSTEM    = UTC
MEAN_ELEMENT_THEORY = SGP/SGP4

EPOCH          = 2025-12-24T04:47:17.733984
MEAN_MOTION    = 15.52556043
ECCENTRICITY   = .00033079
INCLINATION    = 70.0007
RA_OF_ASC_NODE = 166.9766
ARG_OF_PERICENTER = 279.0621
MEAN_ANOMALY   = 81.0192

EPHEMERIS_TYPE = 0
CLASSIFICATION_TYPE = U
NORAD_CAT_ID   = 66844
ELEMENT_SET_NO = 999
REV_AT_EPOCH   = 468
BSTAR          = .16479221E-2
MEAN_MOTION_DOT = .10267E-2
MEAN_MOTION_DDOT = 0

CCSDS_OMM_VERS = 2.0
CREATION_DATE  = 
ORIGINATOR     = 

OBJECT_NAME    = STARLINK-36068
OBJECT_ID      = 2025-280AA
CENTER_NAME    = EARTH
REF_FRAME      = TEME
TIME_SYSTEM    = UTC
MEAN_ELEMENT_THEORY = SGP/SGP4

EPOCH          = 2025-12-24T01:39:45.478368
MEAN_MOTION    = 15.52545504
ECCENTRICITY   = .00033745
INCLINATION    = 70.0008
RA_OF_ASC_NODE = 167.3235
ARG_OF_PERICENTER = 271.9294
MEAN_ANOMALY   = 88.1506

EPHEMERIS_TYPE = 0
CLASSIFICATION_TYPE = U
NORAD_CAT_ID   = 66845
ELEMENT_SET_NO = 999
REV_AT_EPOCH   = 469
BSTAR          = .72318066E-3
MEAN_MOTION_DOT = .44616E-3
MEAN_MOTION_DDOT = 0

CCSDS_OMM_VERS = 2.0
CREATION_DATE  = 
ORIGINATOR     = 

OBJECT_NAME    = STARLINK-36055
OBJECT_ID      = 2025-280AB
CENTER_NAME    = EARTH
REF_FRAME      = TEME
TIME_SYSTEM    = UTC
MEAN_ELEMENT_THEORY = SGP/SGP4

EPOCH          = 2025-12-24T01:40:44.785920
MEAN_MOTION    = 15.52546147
ECCENTRICITY   = .00033
INCLINATION    = 70.0007
RA_OF_ASC_NODE = 167.3261
ARG_OF_PERICENTER = 272.3415
MEAN_ANOMALY   = 87.7394

EPHEMERIS_TYPE = 0
CLASSIFICATION_TYPE = U
NORAD_CAT_ID   = 66846
ELEMENT_SET_NO = 999
REV_AT_EPOCH   = 469
BSTAR          = .10222712E-2
MEAN_MOTION_DOT = .63288E-3
MEAN_MOTION_DDOT = 0

CCSDS_OMM_VERS = 2.0
CREATION_DATE  = 
ORIGINATOR     = 

OBJECT_NAME    = STARLINK-36061
OBJECT_ID      = 2025-280AC
CENTER_NAME    = EARTH
REF_FRAME      = TEME
TIME_SYSTEM    = UTC
MEAN_ELEMENT_THEORY = SGP/SGP4

EPOCH          = 2025-12-24T04:45:48.888864
MEAN_MOTION    = 15.52555832
ECCENTRICITY   = .00031962
INCLINATION    = 70.0008
RA_OF_ASC_NODE = 166.9720
ARG_OF_PERICENTER = 275.0079
MEAN_ANOMALY   = 85.0743

EPHEMERIS_TYPE = 0
CLASSIFICATION_TYPE = U
NORAD_CAT_ID   = 66847
ELEMENT_SET_NO = 999
REV_AT_EPOCH   = 471
BSTAR          = .19161513E-2
MEAN_MOTION_DOT = .119663E-2
MEAN_MOTION_DDOT = 0

CCSDS_OMM_VERS = 2.0
CREATION_DATE  = 
ORIGINATOR     = 

OBJECT_NAME    = STARLINK-36091
OBJECT_ID      = 2025-281A
CENTER_NAME    = EARTH
REF_FRAME      = TEME
TIME_SYSTEM    = UTC
MEAN_ELEMENT_THEORY = SGP/SGP4

EPOCH          = 2025-12-24T20:00:01.000224
MEAN_MOTION    = 15.56030848
ECCENTRICITY   = .000136
INCLINATION    = 43.0005
RA_OF_ASC_NODE = 48.9672
ARG_OF_PERICENTER = 280.1820
MEAN_ANOMALY   = 154.3106

EPHEMERIS_TYPE = 0
CLASSIFICATION_TYPE = U
NORAD_CAT_ID   = 66848
ELEMENT_SET_NO = 999
REV_AT_EPOCH   = 333
BSTAR          = -.3234E-1
MEAN_MOTION_DOT = -.2062541E-1
MEAN_MOTION_DDOT = 0

CCSDS_OMM_VERS = 2.0
CREATION_DATE  = 
ORIGINATOR     = 

OBJECT_NAME    = STARLINK-36102
OBJECT_ID      = 2025-281B
CENTER_NAME    = EARTH
REF_FRAME      = TEME
TIME_SYSTEM    = UTC
MEAN_ELEMENT_THEORY = SGP/SGP4

EPOCH          = 2025-12-24T06:00:02.000160
MEAN_MOTION    = 15.58608838
ECCENTRICITY   = .00013674
INCLINATION    = 42.9999
RA_OF_ASC_NODE = 52.4083
ARG_OF_PERICENTER = 275.9350
MEAN_ANOMALY   = 126.2825

EPHEMERIS_TYPE = 0
CLASSIFICATION_TYPE = U
NORAD_CAT_ID   = 66849
ELEMENT_SET_NO = 999
REV_AT_EPOCH   = 323
BSTAR          = -.29322426E-1
MEAN_MOTION_DOT = -.2061839E-1
MEAN_MOTION_DDOT = 0

CCSDS_OMM_VERS = 2.0
CREATION_DATE  = 
ORIGINATOR     = 

OBJECT_NAME    = STARLINK-36105
OBJECT_ID      = 2025-281C
CENTER_NAME    = EARTH
REF_FRAME      = TEME
TIME_SYSTEM    = UTC
MEAN_ELEMENT_THEORY = SGP/SGP4

EPOCH          = 2025-12-24T20:00:01.000224
MEAN_MOTION    = 15.56032204
ECCENTRICITY   = .0001647
INCLINATION    = 43.0002
RA_OF_ASC_NODE = 48.9570
ARG_OF_PERICENTER = 279.6803
MEAN_ANOMALY   = 158.6477

EPHEMERIS_TYPE = 0
CLASSIFICATION_TYPE = U
NORAD_CAT_ID   = 66850
ELEMENT_SET_NO = 999
REV_AT_EPOCH   = 333
BSTAR          = -.32389E-1
MEAN_MOTION_DOT = -.206557E-1
MEAN_MOTION_DDOT = 0

CCSDS_OMM_VERS = 2.0
CREATION_DATE  = 
ORIGINATOR     = 

OBJECT_NAME    = STARLINK-36094
OBJECT_ID      = 2025-281D
CENTER_NAME    = EARTH
REF_FRAME      = TEME
TIME_SYSTEM    = UTC
MEAN_ELEMENT_THEORY = SGP/SGP4

EPOCH          = 2025-12-24T20:00:01.000224
MEAN_MOTION    = 15.56031445
ECCENTRICITY   = .0001569
INCLINATION    = 43.0003
RA_OF_ASC_NODE = 48.9523
ARG_OF_PERICENTER = 282.9073
MEAN_ANOMALY   = 157.3368

EPHEMERIS_TYPE = 0
CLASSIFICATION_TYPE = U
NORAD_CAT_ID   = 66851
ELEMENT_SET_NO = 999
REV_AT_EPOCH   = 333
BSTAR          = -.32365E-1
MEAN_MOTION_DOT = -.2064095E-1
MEAN_MOTION_DDOT = 0

CCSDS_OMM_VERS = 2.0
CREATION_DATE  = 
ORIGINATOR     = 

OBJECT_NAME    = STARLINK-35992
OBJECT_ID      = 2025-281E
CENTER_NAME    = EARTH
REF_FRAME      = TEME
TIME_SYSTEM    = UTC
MEAN_ELEMENT_THEORY = SGP/SGP4

EPOCH          = 2025-12-24T20:00:01.000224
MEAN_MOTION    = 15.56025306
ECCENTRICITY   = .0001525
INCLINATION    = 43.0003
RA_OF_ASC_NODE = 48.9478
ARG_OF_PERICENTER = 280.7356
MEAN_ANOMALY   = 161.4282

EPHEMERIS_TYPE = 0
CLASSIFICATION_TYPE = U
NORAD_CAT_ID   = 66852
ELEMENT_SET_NO = 999
REV_AT_EPOCH   = 333
BSTAR          = -.3221E-1
MEAN_MOTION_DOT = -.205487E-1
MEAN_MOTION_DDOT = 0

